{"type": "FeatureCollection", "features": [ {"type": "Feature", "properties": {"norad_id": 32128, "name": "FENGYUN 1C DEB", "group": "fengyun-1c-debris", "lat": -3.2318356049670935, "lon": -154.21854684732938, "alt_km": 757.3600400526548, "timestamp": "2025-12-05T22:40:48.835964+00:00", "meta": {"OBJECT_NAME": "FENGYUN 1C DEB", "OBJECT_ID": "1999-025CRW", "EPOCH": "2025-12-02T21:25:30.553536", "MEAN_MOTION": 13.94166483, "ECCENTRICITY": 0.03968604, "INCLINATION": 99.0315, "RA_OF_ASC_NODE": 23.3034, "ARG_OF_PERICENTER": 249.8846, "MEAN_ANOMALY": 105.9204, "EPHEMERIS_TYPE": 0, "CLASSIFICATION_TYPE": "U", "NORAD_CAT_ID": 32128, "ELEMENT_SET_NO": 999, "REV_AT_EPOCH": 62848, "BSTAR": 0.00073088857, "MEAN_MOTION_DOT": 1.817e-05, "MEAN_MOTION_DDOT": 0}, "tle": {"line1": "1 32128U 99025CRW 25336.89271474  .00001817  00000+0  73089-3 0  9998", "line2": "2 32128  99.0315  23.3034 0396860 249.8846 105.9204 13.94166483628487"}}, "geometry": {"type": "Point", "coordinates": [-154.21854684732938, -3.2318356049670935]}}, {"type": "Feature", "properties": {"norad_id": 32129, "name": "FENGYUN 1C DEB", "group": "fengyun-1c-debris", "lat": -37.04263783779831, "lon": 105.00516101513513, "alt_km": 804.4891855185988, "timestamp": "2025-12-05T22:40:48.835974+00:00", "meta": {"OBJECT_NAME": "FENGYUN 1C DEB", "OBJECT_ID": "1999-025CRX", "EPOCH": "2025-12-04T06:47:11.103360", "MEAN_MOTION": 14.28351458, "ECCENTRICITY": 0.0068221, "INCLINATION": 99.06, "RA_OF_ASC_NODE": 96.364, "ARG_OF_PERICENTER": 58.9754, "MEAN_ANOMALY": 1.6192, "EPHEMERIS_TYPE": 0, "CLASSIFICATION_TYPE": "U", "NORAD_CAT_ID": 32129, "ELEMENT_SET_NO": 999, "REV_AT_EPOCH": 94106, "BSTAR": 0.00548, "MEAN_MOTION_DOT": 0.00014014, "MEAN_MOTION_DDOT": 0}, "tle": {"line1": "1 32129U 99025CRX 25338.28276740  .00014014  00000+0  54800-2 0  9997", "line2": "2 32129  99.0600  96.3640 0068221  58.9754   1.6192 14.28351458941068"}}, "geometry": {"type": "Point", "coordinates": [105.00516101513513, -37.04263783779831]}}, {"type": "Feature", "properties": {"norad_id": 32130, "name": "FENGYUN 1C DEB", "group": "fengyun-1c-debris", "lat": -32.77996609010332, "lon": 152.00671797695026, "alt_km": 718.3494962364848, "timestamp": "2025-12-05T22:40:48.835984+00:00", "meta": {"OBJECT_NAME": "FENGYUN 1C DEB", "OBJECT_ID": "1999-025CRY", "EPOCH": "2025-12-02T04:37:31.884096", "MEAN_MOTION": 14.37503292, "ECCENTRICITY": 0.0082943, "INCLINATION": 98.9035, "RA_OF_ASC_NODE": 142.3292, "ARG_OF_PERICENTER": 1.367, "MEAN_ANOMALY": 358.7727, "EPHEMERIS_TYPE": 0, "CLASSIFICATION_TYPE": "U", "NORAD_CAT_ID": 32130, "ELEMENT_SET_NO": 999, "REV_AT_EPOCH": 96083, "BSTAR": 0.00049217, "MEAN_MOTION_DOT": 1.485e-05, "MEAN_MOTION_DDOT": 0}, "tle": {"line1": "1 32130U 99025CRY 25336.19273014  .00001485  00000+0  49217-3 0  9993", "line2": "2 32130  98.9035 142.3292 0082943   1.3670 358.7727 14.37503292960832"}}, "geometry": {"type": "Point", "coordinates": [152.00671797695026, -32.77996609010332]}}, {"type": "Feature", "properties": {"norad_id": 32133, "name": "FENGYUN 1C DEB", "group": "fengyun-1c-debris", "lat": 78.64782812437204, "lon": -150.87659725100374, "alt_km": 800.3866792317203, "timestamp": "2025-12-05T22:40:48.835994+00:00", "meta": {"OBJECT_NAME": "FENGYUN 1C DEB", "OBJECT_ID": "1999-025CSB", "EPOCH": "2025-12-03T10:57:10.951200", "MEAN_MOTION": 14.18059582, "ECCENTRICITY": 0.00362145, "INCLINATION": 98.4318, "RA_OF_ASC_NODE": 339.1294, "ARG_OF_PERICENTER": 127.0765, "MEAN_ANOMALY": 233.3731, "EPHEMERIS_TYPE": 0, "CLASSIFICATION_TYPE": "U", "NORAD_CAT_ID": 32133, "ELEMENT_SET_NO": 999, "REV_AT_EPOCH": 94843, "BSTAR": 0.00026439963, "MEAN_MOTION_DOT": 5.05e-06, "MEAN_MOTION_DDOT": 0}, "tle": {"line1": "1 32133U 99025CSB 25337.45637675  .00000505  00000+0  26440-3 0  9998", "line2": "2 32133  98.4318 339.1294 0036214 127.0765 233.3731 14.18059582948435"}}, "geometry": {"type": "Point", "coordinates": [-150.87659725100374, 78.64782812437204]}}, {"type": "Feature", "properties": {"norad_id": 32134, "name": "FENGYUN 1C DEB", "group": "fengyun-1c-debris", "lat": -41.08918183596137, "lon": 155.73051229246713, "alt_km": 735.0882214199264, "timestamp": "2025-12-05T22:40:48.836004+00:00", "meta": {"OBJECT_NAME": "FENGYUN 1C DEB", "OBJECT_ID": "1999-025CSC", "EPOCH": "2025-12-05T06:29:52.939104", "MEAN_MOTION": 14.21509224, "ECCENTRICITY": 0.02591795, "INCLINATION": 98.5942, "RA_OF_ASC_NODE": 342.6512, "ARG_OF_PERICENTER": 285.398, "MEAN_ANOMALY": 90.241, "EPHEMERIS_TYPE": 0, "CLASSIFICATION_TYPE": "U", "NORAD_CAT_ID": 32134, "ELEMENT_SET_NO": 999, "REV_AT_EPOCH": 95041, "BSTAR": 0.0013851565, "MEAN_MOTION_DOT": 4.217e-05, "MEAN_MOTION_DDOT": 0}, "tle": {"line1": "1 32134U 99025CSC 25339.27075161  .00004217  00000+0  13852-2 0  9993", "line2": "2 32134  98.5942 342.6512 0259179 285.3980  90.2410 14.21509224950418"}}, "geometry": {"type": "Point", "coordinates": [155.73051229246713, -41.08918183596137]}}, {"type": "Feature", "properties": {"norad_id": 32136, "name": "FENGYUN 1C DEB", "group": "fengyun-1c-debris", "lat": 27.569292369754788, "lon": -26.02070941106245, "alt_km": 809.9225466507178, "timestamp": "2025-12-05T22:40:48.836015+00:00", "meta": {"OBJECT_NAME": "FENGYUN 1C DEB", "OBJECT_ID": "1999-025CSE", "EPOCH": "2025-11-08T10:52:11.631360", "MEAN_MOTION": 14.37825296, "ECCENTRICITY": 0.00661033, "INCLINATION": 98.2658, "RA_OF_ASC_NODE": 311.8847, "ARG_OF_PERICENTER": 277.2954, "MEAN_ANOMALY": 82.0724, "EPHEMERIS_TYPE": 0, "CLASSIFICATION_TYPE": "U", "NORAD_CAT_ID": 32136, "ELEMENT_SET_NO": 999, "REV_AT_EPOCH": 64597, "BSTAR": 0.00089904729, "MEAN_MOTION_DOT": 2.737e-05, "MEAN_MOTION_DDOT": 0}, "tle": {"line1": "1 32136U 99025CSE 25312.45291240  .00002737  00000+0  89905-3 0  9992", "line2": "2 32136  98.2658 311.8847 0066103 277.2954  82.0724 14.37825296645970"}}, "geometry": {"type": "Point", "coordinates": [-26.02070941106245, 27.569292369754788]}}, {"type": "Feature", "properties": {"norad_id": 32137, "name": "FENGYUN 1C DEB", "group": "fengyun-1c-debris", "lat": -17.67771896918061, "lon": 109.53529570400343, "alt_km": 591.3570611872128, "timestamp": "2025-12-05T22:40:48.836025+00:00", "meta": {"OBJECT_NAME": "FENGYUN 1C DEB", "OBJECT_ID": "1999-025CSF", "EPOCH": "2025-12-01T02:00:45.065088", "MEAN_MOTION": 14.80954252, "ECCENTRICITY": 0.0188708, "INCLINATION": 98.4409, "RA_OF_ASC_NODE": 101.7043, "ARG_OF_PERICENTER": 71.3669, "MEAN_ANOMALY": 290.7929, "EPHEMERIS_TYPE": 0, "CLASSIFICATION_TYPE": "U", "NORAD_CAT_ID": 32137, "ELEMENT_SET_NO": 999, "REV_AT_EPOCH": 66558, "BSTAR": 0.00088075161, "MEAN_MOTION_DOT": 9.212e-05, "MEAN_MOTION_DDOT": 0}, "tle": {"line1": "1 32137U 99025CSF 25335.08385492  .00009212  00000+0  88075-3 0  9992", "line2": "2 32137  98.4409 101.7043 0188708  71.3669 290.7929 14.80954252665580"}}, "geometry": {"type": "Point", "coordinates": [109.53529570400343, -17.67771896918061]}}, {"type": "Feature", "properties": {"norad_id": 32141, "name": "FENGYUN 1C DEB", "group": "fengyun-1c-debris", "lat": 61.55363809700619, "lon": -33.89862872658759, "alt_km": 926.7055458646955, "timestamp": "2025-12-05T22:40:48.836035+00:00", "meta": {"OBJECT_NAME": "FENGYUN 1C DEB", "OBJECT_ID": "1999-025CSK", "EPOCH": "2025-11-20T23:04:46.058016", "MEAN_MOTION": 14.03501767, "ECCENTRICITY": 0.00731678, "INCLINATION": 98.7436, "RA_OF_ASC_NODE": 328.1999, "ARG_OF_PERICENTER": 269.2169, "MEAN_ANOMALY": 90.0615, "EPHEMERIS_TYPE": 0, "CLASSIFICATION_TYPE": "U", "NORAD_CAT_ID": 32141, "ELEMENT_SET_NO": 999, "REV_AT_EPOCH": 94638, "BSTAR": 0.00056632309, "MEAN_MOTION_DOT": 8.66e-06, "MEAN_MOTION_DDOT": 0}, "tle": {"line1": "1 32141U 99025CSK 25324.96164419  .00000866  00000+0  56632-3 0  9996", "line2": "2 32141  98.7436 328.1999 0073167 269.2169  90.0615 14.03501767946385"}}, "geometry": {"type": "Point", "coordinates": [-33.89862872658759, 61.55363809700619]}}, {"type": "Feature", "properties": {"norad_id": 32143, "name": "FENGYUN 1C DEB", "group": "fengyun-1c-debris", "lat": 32.743809063224425, "lon": -48.48780363931188, "alt_km": 835.7439719657714, "timestamp": "2025-12-05T22:40:48.836045+00:00", "meta": {"OBJECT_NAME": "FENGYUN 1C DEB", "OBJECT_ID": "1999-025CSM", "EPOCH": "2025-12-03T04:28:30.343584", "MEAN_MOTION": 14.17959367, "ECCENTRICITY": 0.01041232, "INCLINATION": 98.5963, "RA_OF_ASC_NODE": 314.4234, "ARG_OF_PERICENTER": 136.0042, "MEAN_ANOMALY": 224.9481, "EPHEMERIS_TYPE": 0, "CLASSIFICATION_TYPE": "U", "NORAD_CAT_ID": 32143, "ELEMENT_SET_NO": 999, "REV_AT_EPOCH": 95798, "BSTAR": 0.00020859227, "MEAN_MOTION_DOT": 4.09e-06, "MEAN_MOTION_DDOT": 0}, "tle": {"line1": "1 32143U 99025CSM 25337.18646231  .00000409  00000+0  20859-3 0  9998", "line2": "2 32143  98.5963 314.4234 0104123 136.0042 224.9481 14.17959367957983"}}, "geometry": {"type": "Point", "coordinates": [-48.48780363931188, 32.743809063224425]}}, {"type": "Feature", "properties": {"norad_id": 32150, "name": "FENGYUN 1C DEB", "group": "fengyun-1c-debris", "lat": -78.92995869307015, "lon": 126.15881422407413, "alt_km": 819.4466169199368, "timestamp": "2025-12-05T22:40:48.836055+00:00", "meta": {"OBJECT_NAME": "FENGYUN 1C DEB", "OBJECT_ID": "1999-025CSU", "EPOCH": "2025-12-05T06:41:21.155712", "MEAN_MOTION": 14.60647769, "ECCENTRICITY": 0.01717281, "INCLINATION": 99.1969, "RA_OF_ASC_NODE": 1.3229, "ARG_OF_PERICENTER": 90.154, "MEAN_ANOMALY": 271.9335, "EPHEMERIS_TYPE": 0, "CLASSIFICATION_TYPE": "U", "NORAD_CAT_ID": 32150, "ELEMENT_SET_NO": 999, "REV_AT_EPOCH": 97597, "BSTAR": 0.00021172379, "MEAN_MOTION_DOT": 1.202e-05, "MEAN_MOTION_DDOT": 0}, "tle": {"line1": "1 32150U 99025CSU 25339.27871708  .00001202  00000+0  21172-3 0  9998", "line2": "2 32150  99.1969   1.3229 0171728  90.1540 271.9335 14.60647769975975"}}, "geometry": {"type": "Point", "coordinates": [126.15881422407413, -78.92995869307015]}}]}